[
    {
        "Altitude(m)": 607886.6648662004,
        "Argument of Periapsis(deg)": 0.0,
        "Eccentricity": 0.0,
        "Inclination(deg)": 60.0,
        "Latitude(deg)": 40.99837165216519,
        "Longitude(deg)": -75.02706725925682,
        "Mean Anomaly(deg)": -310.9091,
        "RAAN(deg)": 355.0,
        "Satellite Name": "Test1 1565",
        "Satellite Number": 1565,
        "Semi-Major Axis(m)": 6980739.136638005,
        "Time(s)": 0
    },
    {
        "Altitude(m)": 607987.5790276498,
        "Argument of Periapsis(deg)": 0.00010418945913296404,
        "Eccentricity": 0.0,
        "Inclination(deg)": 60.0,
        "Latitude(deg)": 41.463462215375664,
        "Longitude(deg)": -74.52284071454582,
        "Mean Anomaly(deg)": -310.2889938545382,
        "RAAN(deg)": 354.99957995086027,
        "Satellite Name": "Test1 1565",
        "Satellite Number": 1565,
        "Semi-Major Axis(m)": 6980739.136638005,
        "Time(s)": 10
    }
]